{
    "links": {
        "self": "http://www.neowsapp.com/rest/v1/neo/3802431?api_key=iIulBulltgU6a56xZRHN4H3l9WmuAYTsLGpBGhQ2"
    },
    "id": "3802431",
    "neo_reference_id": "3802431",
    "name": "(2018 GQ1)",
    "designation": "2018 GQ1",
    "nasa_jpl_url": "http://ssd.jpl.nasa.gov/sbdb.cgi?sstr=3802431",
    "absolute_magnitude_h": 24.3,
    "estimated_diameter": {
        "kilometers": {
            "estimated_diameter_min": 0.0366906138,
            "estimated_diameter_max": 0.0820427065
        },
        "meters": {
            "estimated_diameter_min": 36.6906137531,
            "estimated_diameter_max": 82.0427064882
        },
        "miles": {
            "estimated_diameter_min": 0.0227984834,
            "estimated_diameter_max": 0.0509789586
        },
        "feet": {
            "estimated_diameter_min": 120.3760332259,
            "estimated_diameter_max": 269.1689931548
        }
    },
    "is_potentially_hazardous_asteroid": false,
    "close_approach_data": [
        {
            "close_approach_date": "2018-04-08",
            "close_approach_date_full": "2018-Apr-08 02:01",
            "epoch_date_close_approach": 1523152860000,
            "relative_velocity": {
                "kilometers_per_second": "12.3024653361",
                "kilometers_per_hour": "44288.8752100154",
                "miles_per_hour": "27519.3847103565"
            },
            "miss_distance": {
                "astronomical": "0.0588813753",
                "lunar": "22.9048549917",
                "kilometers": "8808528.327550611",
                "miles": "5473365.6993999918"
            },
            "orbiting_body": "Earth"
        }
    ],
    "orbital_data": {
        "orbit_id": "6",
        "orbit_determination_date": "2018-06-30 06:51:55",
        "first_observation_date": "2018-04-10",
        "last_observation_date": "2018-05-08",
        "data_arc_in_days": 28,
        "observations_used": 56,
        "orbit_uncertainty": "7",
        "minimum_orbit_intersection": ".0290279",
        "jupiter_tisserand_invariant": "4.158",
        "epoch_osculation": "2459000.5",
        "eccentricity": ".3938440785775873",
        "semi_major_axis": "1.63817548652241",
        "inclination": "17.94353284546143",
        "ascending_node_longitude": "195.7825217924811",
        "orbital_period": "765.8417904477021",
        "perihelion_distance": ".9929897714846007",
        "perihelion_argument": "329.9312514692515",
        "aphelion_distance": "2.283361201560219",
        "perihelion_time": "2458956.724327495272",
        "mean_anomaly": "20.57767321954216",
        "mean_motion": ".4700709787455555",
        "equinox": "J2000",
        "orbit_class": {
            "orbit_class_type": "APO",
            "orbit_class_description": "Near-Earth asteroid orbits which cross the Earth’s orbit similar to that of 1862 Apollo",
            "orbit_class_range": "a (semi-major axis) > 1.0 AU; q (perihelion) < 1.017 AU"
        }
    },
    "is_sentry_object": false
}